[{"OBJECT_NAME":"STARLINK-32921","OBJECT_ID":"2025-027P","EPOCH":"2026-03-09T05:32:10.918752","MEAN_MOTION":15.27612444,"ECCENTRICITY":0.00014204,"INCLINATION":42.9985,"RA_OF_ASC_NODE":131.3284,"ARG_OF_PERICENTER":183.4353,"MEAN_ANOMALY":176.6489,"EPHEMERIS_TYPE":0,"CLASSIFICATION_TYPE":"U","NORAD_CAT_ID":62920,"ELEMENT_SET_NO":999,"REV_AT_EPOCH":6147,"BSTAR":0.0010649414,"MEAN_MOTION_DOT":0.00029188,"MEAN_MOTION_DDOT":0},{"OBJECT_NAME":"CZ-2C R\/B","OBJECT_ID":"2025-266D","EPOCH":"2026-03-09T20:29:03.778080","MEAN_MOTION":15.32844431,"ECCENTRICITY":0.00801532,"INCLINATION":52.0528,"RA_OF_ASC_NODE":275.4841,"ARG_OF_PERICENTER":115.4113,"MEAN_ANOMALY":245.5197,"EPHEMERIS_TYPE":0,"CLASSIFICATION_TYPE":"U","NORAD_CAT_ID":66548,"ELEMENT_SET_NO":999,"REV_AT_EPOCH":1696,"BSTAR":0.00054134058,"MEAN_MOTION_DOT":0.00018939,"MEAN_MOTION_DDOT":0}]
